GOES 1 (SMS-C) [-]      
1 08366U 75100A   23066.61325005 -.00000136  00000+0  00000+0 0  9994
2 08366   7.6350 292.4103 0001258 330.6330  25.1157  1.00228845173058
GOES 2 [-]              
1 10061U 77048A   23066.48032372 -.00000261  00000+0  00000+0 0  9998
2 10061   9.2510 304.3410 0012652  31.6777 317.1682  0.99399179 34369
GOES 3 [-]              
1 10953U 78062A   23066.85022027 -.00000321  00000+0  00000+0 0  9999
2 10953   9.6023 309.0236 0001853 114.1756 188.5220  0.99364833116633
GOES 4 [-]              
1 11964U 80074A   23066.86298003 -.00000003  00000+0  00000+0 0  9995
2 11964  10.5816 312.8596 0033473  79.6997 167.6448  0.99226813115558
GOES 5 [-]              
1 12472U 81049A   23065.52809944 -.00000252  00000+0  00000+0 0  9993
2 12472  11.5027 324.4478 0000437  77.1908 240.2338  1.00238561110822
GOES 6 [-]              
1 14050U 83041A   23067.17804713 -.00000203  00000+0  00000+0 0  9999
2 14050  12.1004 329.8031 0003076 136.8318  36.8446  1.00230212204055
GOES 7 [-]              
1 17561U 87022A   23066.32466767 -.00000045  00000+0  00000+0 0  9995
2 17561  14.0148 346.4283 0005316  58.2261 130.9780  0.99891040114991
GOES 8 [-]              
1 23051U 94022A   23066.85581677 -.00000279  00000+0  00000+0 0  9999
2 23051  13.4019  22.3319 0006505  23.6127 213.1655  0.98907655112284
GOES 9 [-]              
1 23581U 95025A   23067.27181507 -.00000188  00000+0  00000+0 0  9995
2 23581  12.8990  22.7593 0004753  94.4265  95.7516  0.98800554100921
GOES 10 [-]             
1 24786U 97019A   23066.33259968 -.00000163  00000+0  00000+0 0  9994
2 24786  11.7191  29.0433 0026217 209.6841 339.6258  0.99123890 94198
GOES 11 [-]             
1 26352U 00022A   23066.53559543  .00000024  00000+0  00000+0 0  9992
2 26352   9.2426  57.1930 0002030 266.1893 116.7216  0.99039597 40614
GOES 12 [-]             
1 26871U 01031A   23065.94216212 -.00000013  00000+0  00000+0 0  9995
2 26871   9.9906  46.4298 0006232 323.7785 220.7518  0.99134156 78884
EWS-G1 (GOES 13) [+]    
1 29155U 06018A   23066.57315424  .00000039  00000+0  00000+0 0  9995
2 29155   1.2656  92.2968 0003195 180.7542 159.5567  1.00274496 31369
GOES 14 [B]             
1 35491U 09033A   23066.61115809 -.00000070  00000+0  00000+0 0  9991
2 35491   0.0956 130.1074 0004792 268.6158 238.4510  1.00276152 50101
GOES 15 [B]             
1 36411U 10008A   23067.03746698  .00000053  00000+0  00000+0 0  9991
2 36411   0.1102  94.4080 0001557  58.6069 258.0844  1.00279834 47655
GOES 16 [+]             
1 41866U 16071A   23067.49186847 -.00000246  00000+0  00000+0 0  9996
2 41866   0.0890 286.2183 0000672  77.3387 264.2352  1.00272061 23103
GOES 17 [+]             
1 43226U 18022A   23067.50691389 -.00000088  00000+0  00000+0 0  9994
2 43226   0.0079  77.3513 0001525 308.1373 218.2085  1.00270933 18436
GOES 18 [+]             
1 51850U 22021A   23067.25697950  .00000098  00000+0  00000+0 0  9992
2 51850   0.0199 335.5932 0000394   3.1247 142.4688  1.00272570  3801
